{
  "type": "FeatureCollection",
  "features": [
    {
      "type": "Feature",
      "properties": {
        "norad_id": 30495,
        "name": "FENGYUN 1C DEB",
        "group": "fengyun-1c-debris",
        "lat": 16.23829618034336,
        "lon": 84.17465969131857,
        "alt_km": 1578.0088403609334,
        "timestamp": "2025-12-23T16:57:12.629224+00:00",
        "meta_object_name": "FENGYUN 1C DEB",
        "meta_object_id": "1999-025AHH",
        "meta_epoch": "2025-12-23T05:43:57.332928",
        "meta_mean_motion": 12.94425586,
        "meta_eccentricity": 0.05977624,
        "meta_inclination": 102.2599,
        "meta_ra_of_asc_node": 87.2817,
        "meta_arg_of_pericenter": 245.2238,
        "meta_mean_anomaly": 108.5545,
        "meta_ephemeris_type": 0,
        "meta_classification_type": "U",
        "meta_norad_cat_id": 30495,
        "meta_element_set_no": 999,
        "meta_rev_at_epoch": 88809,
        "meta_bstar": 0.003858512,
        "meta_mean_motion_dot": 2.368e-05,
        "meta_mean_motion_ddot": 0,
        "tle_line1": "1 30495U 99025AHH 25357.23885802  .00002368  00000+0  38585-2 0  9993",
        "tle_line2": "2 30495 102.2599  87.2817 0597762 245.2238 108.5545 12.94425586888093"
      },
      "geometry": {
        "type": "Point",
        "coordinates": [
          84.17465969131857,
          16.23829618034336
        ]
      }
    },
    {
      "type": "Feature",
      "properties": {
        "norad_id": 30496,
        "name": "FENGYUN 1C DEB",
        "group": "fengyun-1c-debris",
        "lat": -25.968350598196256,
        "lon": 80.52448398617692,
        "alt_km": 662.6967361151865,
        "timestamp": "2025-12-23T16:57:12.629234+00:00",
        "meta_object_name": "FENGYUN 1C DEB",
        "meta_object_id": "1999-025AHJ",
        "meta_epoch": "2025-12-23T04:47:41.294400",
        "meta_mean_motion": 14.94396569,
        "meta_eccentricity": 0.01298894,
        "meta_inclination": 98.7831,
        "meta_ra_of_asc_node": 264.2767,
        "meta_arg_of_pericenter": 63.7962,
        "meta_mean_anomaly": 297.6542,
        "meta_ephemeris_type": 0,
        "meta_classification_type": "U",
        "meta_norad_cat_id": 30496,
        "meta_element_set_no": 999,
        "meta_rev_at_epoch": 1300,
        "meta_bstar": 0.00062736981,
        "meta_mean_motion_dot": 7.914e-05,
        "meta_mean_motion_ddot": 0,
        "tle_line1": "1 30496U 99025AHJ 25357.19978350  .00007914  00000+0  62737-3 0  9999",
        "tle_line2": "2 30496  98.7831 264.2767 0129889  63.7962 297.6542 14.94396569 13009"
      },
      "geometry": {
        "type": "Point",
        "coordinates": [
          80.52448398617692,
          -25.968350598196256
        ]
      }
    },
    {
      "type": "Feature",
      "properties": {
        "norad_id": 30498,
        "name": "FENGYUN 1C DEB",
        "group": "fengyun-1c-debris",
        "lat": 80.10654279001396,
        "lon": -19.868856850368907,
        "alt_km": 806.7793381387828,
        "timestamp": "2025-12-23T16:57:12.629245+00:00",
        "meta_object_name": "FENGYUN 1C DEB",
        "meta_object_id": "1999-025AHL",
        "meta_epoch": "2025-12-22T22:35:45.269088",
        "meta_mean_motion": 14.06122497,
        "meta_eccentricity": 0.0103819,
        "meta_inclination": 99.2375,
        "meta_ra_of_asc_node": 48.2712,
        "meta_arg_of_pericenter": 128.0407,
        "meta_mean_anomaly": 49.3329,
        "meta_ephemeris_type": 0,
        "meta_classification_type": "U",
        "meta_norad_cat_id": 30498,
        "meta_element_set_no": 999,
        "meta_rev_at_epoch": 95912,
        "meta_bstar": 0.0015488,
        "meta_mean_motion_dot": 2.627e-05,
        "meta_mean_motion_ddot": 0,
        "tle_line1": "1 30498U 99025AHL 25356.94149617  .00002627  00000+0  15488-2 0  9995",
        "tle_line2": "2 30498  99.2375  48.2712 0103819 128.0407  49.3329 14.06122497959121"
      },
      "geometry": {
        "type": "Point",
        "coordinates": [
          -19.868856850368907,
          80.10654279001396
        ]
      }
    },
    {
      "type": "Feature",
      "properties": {
        "norad_id": 30500,
        "name": "FENGYUN 1C DEB",
        "group": "fengyun-1c-debris",
        "lat": -18.886467365391237,
        "lon": 92.70388974633177,
        "alt_km": 823.1902734447913,
        "timestamp": "2025-12-23T16:57:12.629259+00:00",
        "meta_object_name": "FENGYUN 1C DEB",
        "meta_object_id": "1999-025AHN",
        "meta_epoch": "2025-12-23T05:30:13.376736",
        "meta_mean_motion": 14.25303796,
        "meta_eccentricity": 0.00634825,
        "meta_inclination": 99.0721,
        "meta_ra_of_asc_node": 89.0773,
        "meta_arg_of_pericenter": 86.3,
        "meta_mean_anomaly": 328.8383,
        "meta_ephemeris_type": 0,
        "meta_classification_type": "U",
        "meta_norad_cat_id": 30500,
        "meta_element_set_no": 999,
        "meta_rev_at_epoch": 96831,
        "meta_bstar": 0.0022906898,
        "meta_mean_motion_dot": 5.465e-05,
        "meta_mean_motion_ddot": 0,
        "tle_line1": "1 30500U 99025AHN 25357.22932149  .00005465  00000+0  22907-2 0  9998",
        "tle_line2": "2 30500  99.0721  89.0773 0063482  86.3000 328.8383 14.25303796968314"
      },
      "geometry": {
        "type": "Point",
        "coordinates": [
          92.70388974633177,
          -18.886467365391237
        ]
      }
    },
    {
      "type": "Feature",
      "properties": {
        "norad_id": 30501,
        "name": "FENGYUN 1C DEB",
        "group": "fengyun-1c-debris",
        "lat": -64.33635568047099,
        "lon": 8.34876521830571,
        "alt_km": 830.2619323861327,
        "timestamp": "2025-12-23T16:57:12.629270+00:00",
        "meta_object_name": "FENGYUN 1C DEB",
        "meta_object_id": "1999-025AHP",
        "meta_epoch": "2025-12-22T22:59:32.546112",
        "meta_mean_motion": 14.25408329,
        "meta_eccentricity": 0.0040695,
        "meta_inclination": 99.0849,
        "meta_ra_of_asc_node": 348.1225,
        "meta_arg_of_pericenter": 172.9635,
        "meta_mean_anomaly": 242.6519,
        "meta_ephemeris_type": 0,
        "meta_classification_type": "U",
        "meta_norad_cat_id": 30501,
        "meta_element_set_no": 999,
        "meta_rev_at_epoch": 97065,
        "meta_bstar": 0.0014915,
        "meta_mean_motion_dot": 3.503e-05,
        "meta_mean_motion_ddot": 0,
        "tle_line1": "1 30501U 99025AHP 25356.95801558  .00003503  00000+0  14915-2 0  9998",
        "tle_line2": "2 30501  99.0849 348.1225 0040695 172.9635 242.6519 14.25408329970656"
      },
      "geometry": {
        "type": "Point",
        "coordinates": [
          8.34876521830571,
          -64.33635568047099
        ]
      }
    },
    {
      "type": "Feature",
      "properties": {
        "norad_id": 30503,
        "name": "FENGYUN 1C DEB",
        "group": "fengyun-1c-debris",
        "lat": 34.368579666169005,
        "lon": 27.95736926412258,
        "alt_km": 835.9474398320326,
        "timestamp": "2025-12-23T16:57:12.629281+00:00",
        "meta_object_name": "FENGYUN 1C DEB",
        "meta_object_id": "1999-025AHR",
        "meta_epoch": "2025-12-23T04:43:25.192704",
        "meta_mean_motion": 14.16135937,
        "meta_eccentricity": 0.00083204,
        "meta_inclination": 99.2039,
        "meta_ra_of_asc_node": 201.0646,
        "meta_arg_of_pericenter": 234.5984,
        "meta_mean_anomaly": 194.0925,
        "meta_ephemeris_type": 0,
        "meta_classification_type": "U",
        "meta_norad_cat_id": 30503,
        "meta_element_set_no": 999,
        "meta_rev_at_epoch": 97494,
        "meta_bstar": 0.0002560512,
        "meta_mean_motion_dot": 4.59e-06,
        "meta_mean_motion_ddot": 0,
        "tle_line1": "1 30503U 99025AHR 25357.19681936  .00000459  00000+0  25605-3 0  9999",
        "tle_line2": "2 30503  99.2039 201.0646 0008320 234.5984 194.0925 14.16135937974945"
      },
      "geometry": {
        "type": "Point",
        "coordinates": [
          27.95736926412258,
          34.368579666169005
        ]
      }
    },
    {
      "type": "Feature",
      "properties": {
        "norad_id": 30504,
        "name": "FENGYUN 1C DEB",
        "group": "fengyun-1c-debris",
        "lat": 9.898793353245553,
        "lon": -134.2977914668145,
        "alt_km": 746.84646143593,
        "timestamp": "2025-12-23T16:57:12.629292+00:00",
        "meta_object_name": "FENGYUN 1C DEB",
        "meta_object_id": "1999-025AHS",
        "meta_epoch": "2025-12-23T02:45:07.138944",
        "meta_mean_motion": 14.20520292,
        "meta_eccentricity": 0.01126037,
        "meta_inclination": 99.024,
        "meta_ra_of_asc_node": 43.5093,
        "meta_arg_of_pericenter": 186.9197,
        "meta_mean_anomaly": 198.9363,
        "meta_ephemeris_type": 0,
        "meta_classification_type": "U",
        "meta_norad_cat_id": 30504,
        "meta_element_set_no": 999,
        "meta_rev_at_epoch": 97541,
        "meta_bstar": 0.00053489089,
        "meta_mean_motion_dot": 1.179e-05,
        "meta_mean_motion_ddot": 0,
        "tle_line1": "1 30504U 99025AHS 25357.11466596  .00001179  00000+0  53489-3 0  9996",
        "tle_line2": "2 30504  99.0240  43.5093 0112603 186.9197 198.9363 14.20520292975418"
      },
      "geometry": {
        "type": "Point",
        "coordinates": [
          -134.2977914668145,
          9.898793353245553
        ]
      }
    }
  ]
}